NORAD_CAT_ID,OBJECT_NAME,OBJECT_TYPE,EPOCH,MEAN_MOTION,ECCENTRICITY,INCLINATION,RA_OF_ASC_NODE,ARG_OF_PERICENTER,MEAN_ANOMALY,BSTAR,MEAN_MOTION_DOT,MEAN_MOTION_DDOT,TLE_LINE0,TLE_LINE1,TLE_LINE2,SEMIMAJOR_AXIS,PERIOD,APOGEE,PERIGEE,DECAYED
49769.0,STARLINK-3208,PAYLOAD,2021-12-19 21:20:27,15.40486365,0.000172,53.2141,237.487,42.3025,317.8113,0.00057906,0.00023502,0.0,0 STARLINK-3208,1 49769U 21115AX  21353.88920139  .00023502  00000-0  57906-3 0  9991,2 49769  53.2141 237.4870 0001720  42.3025 317.8113 15.40486365  2761,6822.81,93.477,445.848,443.501,0.0
49769.0,STARLINK-3208,PAYLOAD,2021-12-20 06:00:00,15.40517961,0.0001928,53.2138,235.7881,33.9367,168.261,-0.0018735,-0.00076825,0.0,0 STARLINK-3208,1 49769U 21115AX  21354.25001157 -.00076825  00000-0 -18735-2 0  9997,2 49769  53.2138 235.7881 0001928  33.9367 168.2610 15.40517961  3921,6822.717,93.475,445.897,443.266,0.0
49769.0,STARLINK-3208,PAYLOAD,2021-12-20 14:00:01,15.40441717,0.000175,53.2139,234.2156,37.8598,213.971,0.00073641,0.0002998,0.0,0 STARLINK-3208,1 49769U 21115AX  21354.58334491  .00029980  00000-0  73641-3 0  9999,2 49769  53.2139 234.2156 0001750  37.8598 213.9710 15.40441717  3174,6822.941999999999,93.48,446.001,443.61300000000006,0.0
49769.0,STARLINK-3208,PAYLOAD,2021-12-20 20:41:49,15.40488124,0.0001614,53.2142,232.9008,40.583,319.5296,0.00024424,9.662e-05,0.0,0 STARLINK-3208,1 49769U 21115AX  21354.86237625  .00009662  00000-0  24424-3 0  9991,2 49769  53.2142 232.9008 0001614  40.5830 319.5296 15.40488124  2914,6822.805,93.477,445.771,443.568,0.0
49769.0,STARLINK-3208,PAYLOAD,2021-12-20 22:00:01,15.40462914,0.0002004,53.2138,232.6466,37.7333,263.7473,-0.00048265,-0.00020201,0.0,0 STARLINK-3208,1 49769U 21115AX  21354.91668981 -.00020201  00000-0 -48265-3 0  9993,2 49769  53.2138 232.6466 0002004  37.7333 263.7473 15.40462914  4035,6822.879,93.478,446.111,443.377,0.0
49769.0,STARLINK-3208,PAYLOAD,2021-12-21 14:00:01,15.40434293,0.0001859,53.2134,229.5037,38.9721,1.5974,-1.7436e-05,-1.12e-05,0.0,0 STARLINK-3208,1 49769U 21115AX  21355.58334491 -.00001120  00000-0 -17436-4 0  9999,2 49769  53.2134 229.5037 0001859  38.9721   1.5974 15.40434293  3336,6822.964,93.48,446.097,443.56,0.0
49769.0,STARLINK-3208,PAYLOAD,2021-12-21 22:00:00,15.40430962,0.0002066,53.214,227.935,37.1454,52.9791,-0.00087709,-0.00036267,0.0,0 STARLINK-3208,1 49769U 21115AX  21355.91667824 -.00036267  00000-0 -87709-3 0  9994,2 49769  53.2140 227.9350 0002066  37.1454  52.9791 15.40430962  3389,6822.973000000001,93.48,446.24800000000016,443.429,0.0
49769.0,STARLINK-3208,PAYLOAD,2021-12-22 06:00:00,15.40422527,0.0002057,53.2143,226.364,35.3544,104.2983,0.00016407,6.341e-05,0.0,0 STARLINK-3208,1 49769U 21115AX  21356.25001157  .00006341  00000-0  16407-3 0  9998,2 49769  53.2143 226.3640 0002057  35.3544 104.2983 15.40422527  4234,6822.998000000001,93.481,446.267,443.46,0.0
49769.0,STARLINK-3208,PAYLOAD,2021-12-22 14:00:01,15.40418854,0.0001872,53.2151,224.7922,40.6768,148.5233,0.0015809,0.00065073,0.0,0 STARLINK-3208,1 49769U 21115AX  21356.58334491  .00065073  00000-0  15809-2 0  9995,2 49769  53.2151 224.7922 0001872  40.6768 148.5233 15.40418854  3482,6823.009,93.481,446.151,443.597,0.0
49769.0,STARLINK-3208,PAYLOAD,2021-12-22 20:00:01,15.40462796,0.0001993,53.2149,223.6156,38.0824,98.284,1.2408e-05,1.07e-06,0.0,0 STARLINK-3208,1 49769U 21115AX  21356.83334491  .00000107  00000-0  12408-4 0  9994,2 49769  53.2149 223.6156 0001993  38.0824  98.2840 15.40462796  4327,6822.879,93.478,446.104,443.385,0.0
49769.0,STARLINK-3208,PAYLOAD,2021-12-22 22:00:00,15.40459959,0.0002062,53.2148,223.2234,37.1738,201.5909,0.00022151,8.716e-05,0.0,0 STARLINK-3208,1 49769U 21115AX  21356.91667824  .00008716  00000-0  22151-3 0  9991,2 49769  53.2148 223.2234 0002062  37.1738 201.5909 15.40459959  3535,6822.888000000001,93.479,446.16,443.346,0.0
49769.0,STARLINK-3208,PAYLOAD,2021-12-23 14:00:01,15.4046451,0.0001732,53.2146,220.0803,37.7452,300.2234,0.0006416,0.00026074,0.0,0 STARLINK-3208,1 49769U 21115AX  21357.58334491  .00026074  00000-0  64160-3 0  9999,2 49769  53.2146 220.0803 0001732  37.7452 300.2234 15.40464510  3630,6822.874,93.478,445.921,443.5580000000001,0.0
49769.0,STARLINK-3208,PAYLOAD,2021-12-23 22:00:00,15.40483942,0.0001908,53.2147,218.5114,32.3703,355.1964,-0.00079945,-0.00033163,0.0,0 STARLINK-3208,1 49769U 21115AX  21357.91667824 -.00033163  00000-0 -79945-3 0  9991,2 49769  53.2147 218.5114 0001908  32.3703 355.1964 15.40483942  4497,6822.816999999999,93.477,445.984,443.38,0.0
49769.0,STARLINK-3208,PAYLOAD,2021-12-24 14:00:01,15.40448549,0.0001817,53.2151,215.3683,39.7596,86.9774,3.4162e-05,1.001e-05,0.0,0 STARLINK-3208,1 49769U 21115AX  21358.58334491  .00001001  00000-0  34162-4 0  9993,2 49769  53.2151 215.3683 0001817  39.7596  86.9774 15.40448549  3635,6822.922,93.479,446.026,443.547,0.0
49769.0,STARLINK-3208,PAYLOAD,2021-12-24 22:00:00,15.4043169,0.0002082,53.2152,213.7996,36.8047,139.50799999999998,0.00049994,0.0002019,0.0,0 STARLINK-3208,1 49769U 21115AX  21358.91667824  .00020190  00000-0  49994-3 0  9997,2 49769  53.2152 213.7996 0002082  36.8047 139.5080 15.40431690  4645,6822.971,93.48,446.257,443.416,0.0
49769.0,STARLINK-3208,PAYLOAD,2021-12-25 14:00:01,15.40457886,0.0001961,53.2158,210.6564,41.7548,233.6999,0.0010625,0.00043535,0.0,0 STARLINK-3208,1 49769U 21115AX  21359.58334491  .00043535  00000-0  10625-2 0  9998,2 49769  53.2158 210.6564 0001961  41.7548 233.6999 15.40457886  3632,6822.894,93.479,446.097,443.421,0.0
49769.0,STARLINK-3208,PAYLOAD,2021-12-25 22:00:00,15.40483148,0.0002194,53.216,209.0879,37.328,287.7282,-0.00027207,-0.00011584,0.0,0 STARLINK-3208,1 49769U 21115AX  21359.91667824 -.00011584  00000-0 -27207-3 0  9990,2 49769  53.2160 209.0879 0002194  37.3280 287.7282 15.40483148  3634,6822.819,93.477,446.181,443.187,0.0
49769.0,STARLINK-3208,PAYLOAD,2021-12-26 06:00:02,15.40481775,0.0002082,53.2161,207.5162,35.5844,339.1496,-0.00061964,-0.00025818,0.0,0 STARLINK-3208,1 49769U 21115AX  21360.25002315 -.00025818  00000-0 -61964-3 0  9990,2 49769  53.2161 207.5162 0002082  35.5844 339.1496 15.40481775  4853,6822.823,93.477,446.109,443.268,0.0
49769.0,STARLINK-3208,PAYLOAD,2021-12-26 14:00:01,15.40483649,0.0001999,53.2164,205.9447,38.6033,25.6645,-0.00034886,-0.00014733,0.0,0 STARLINK-3208,1 49769U 21115AX  21360.58334491 -.00014733  00000-0 -34886-3 0  9996,2 49769  53.2164 205.9447 0001999  38.6033  25.6645 15.40483649  3612,6822.818,93.477,446.047,443.319,0.0
49769.0,STARLINK-3208,PAYLOAD,2021-12-26 22:00:00,15.40449681,0.0002187,53.2164,204.3761,33.4817,80.4016,0.00057239,0.00023198,0.0,0 STARLINK-3208,1 49769U 21115AX  21360.91667824  .00023198  00000-0  57239-3 0  9992,2 49769  53.2164 204.3761 0002187  33.4817  80.4016 15.40449681  4954,6822.918000000002,93.479,446.275,443.291,0.0
49769.0,STARLINK-3208,PAYLOAD,2021-12-27 12:00:00,15.40428305,0.0001954,53.216,201.6256,35.0787,75.5825,0.0010867,0.00044498,0.0,0 STARLINK-3208,1 49769U 21115AX  21361.50001157  .00044498  00000-0  10867-2 0  9990,2 49769  53.2160 201.6256 0001954  35.0787  75.5825 15.40428305  5048,6822.981,93.48,446.18,443.513,0.0
49769.0,STARLINK-3208,PAYLOAD,2021-12-27 14:00:01,15.40449018,0.0001964,53.2161,201.2333,36.2373,176.808,0.00041237,0.00016585,0.0,0 STARLINK-3208,1 49769U 21115AX  21361.58334491  .00016585  00000-0  41237-3 0  9990,2 49769  53.2161 201.2333 0001964  36.2373 176.8080 15.40449018  3631,6822.92,93.479,446.125,443.445,0.0
49769.0,STARLINK-3208,PAYLOAD,2021-12-27 22:00:00,15.40439978,0.0002241,53.2159,199.6647,32.7556,229.872,0.0006397999999999,0.00025979,0.0,0 STARLINK-3208,1 49769U 21115AX  21361.91667824  .00025979  00000-0  63980-3 0  9992,2 49769  53.2159 199.6647 0002241  32.7556 229.8720 15.40439978  3633,6822.946999999999,93.48,446.341,443.283,0.0
49769.0,STARLINK-3208,PAYLOAD,2021-12-28 06:00:00,15.40475021,0.0002104,53.2155,198.093,34.0388,278.1672,-0.00049005,-0.00020512,0.0,0 STARLINK-3208,1 49769U 21115AX  21362.25001157 -.00020512  00000-0 -49005-3 0  9993,2 49769  53.2155 198.0930 0002104  34.0388 278.1672 15.40475021  5165,6822.843000000003,93.478,446.144,443.273,0.0
49769.0,STARLINK-3208,PAYLOAD,2021-12-28 14:00:01,15.40478037,0.0002002,53.2156,196.522,37.5368,324.2623,0.00030056,0.00011983,0.0,0 STARLINK-3208,1 49769U 21115AX  21362.58334491  .00011983  00000-0  30056-3 0  9995,2 49769  53.2156 196.5220 0002002  37.5368 324.2623 15.40478037  3666,6822.834,93.477,446.065,443.334,0.0
49769.0,STARLINK-3208,PAYLOAD,2021-12-28 22:00:00,15.40477704,0.0002207,53.2153,194.9532,33.239000000000004,18.1746,-0.00029615,-0.0001257,0.0,0 STARLINK-3208,1 49769U 21115AX  21362.91667824 -.00012570  00000-0 -29615-3 0  9995,2 49769  53.2153 194.9532 0002207  33.2390  18.1746 15.40477704  5269,6822.835,93.477,446.206,443.195,0.0
49769.0,STARLINK-3208,PAYLOAD,2021-12-29 14:00:01,15.40486117,0.0001937,53.2152,191.8102,36.1669,114.5027,-0.00067834,-0.0002822,0.0,0 STARLINK-3208,1 49769U 21115AX  21363.58335648 -.00028220  00000-0 -67834-3 0  9999,2 49769  53.2152 191.8102 0001937  36.1669 114.5027 15.40486117  3648,6822.811,93.477,445.997,443.354,0.0
49769.0,STARLINK-3208,PAYLOAD,2021-12-29 21:08:05,15.40474407,0.0002089,53.216,190.4093,36.7158,323.3991,0.0001126,4.231e-05,0.0,0 STARLINK-3208,1 49769U 21115AX  21363.88061756  .00004231  00000-0  11260-3 0  9994,2 49769  53.2160 190.4093 0002089  36.7158 323.3991 15.40474407  4302,6822.845,93.478,446.135,443.285,0.0
49769.0,STARLINK-3208,PAYLOAD,2021-12-30 06:00:00,15.40462895,0.0001988,53.2154,188.6694,31.0239,218.7655,-0.00029457,-0.00012498,0.0,0 STARLINK-3208,1 49769U 21115AX  21364.25001157 -.00012498  00000-0 -29457-3 0  9998,2 49769  53.2154 188.6694 0001988  31.0239 218.7655 15.40462895  5466,6822.879,93.478,446.101,443.388,0.0
